ONEWEB-0228             
1 48780U 21045P   24164.21088484 -.00002815  00000+0 -75128-2 0  9993
2 48780  87.9039  45.4399 0002075  81.8557 278.2809 13.15561448148824
